{"fetched_at":"2026-07-12T07:15:20.031Z","source":"https://celestrak.org/NORAD/elements/gp.php?GROUP=oneweb&FORMAT=JSON","constellation":"oneweb","records":[{"OBJECT_NAME":"ONEWEB-0504","OBJECT_ID":"2022-138K","EPOCH":"2026-07-11T20:16:08.364864","CLASSIFICATION_TYPE":"U","MEAN_MOTION":13.19726633,"ECCENTRICITY":0.00018545,"INCLINATION":87.9199,"RA_OF_ASC_NODE":300.0558,"ARG_OF_PERICENTER":110.69,"MEAN_ANOMALY":249.4432,"EPHEMERIS_TYPE":0,"NORAD_CAT_ID":54122,"ELEMENT_SET_NO":999,"REV_AT_EPOCH":18008,"BSTAR":0.000055727015,"MEAN_MOTION_DOT":3.5e-7,"MEAN_MOTION_DDOT":0},{"OBJECT_NAME":"ONEWEB-0505","OBJECT_ID":"2022-138L","EPOCH":"2026-07-11T20:11:33.803808","CLASSIFICATION_TYPE":"U","MEAN_MOTION":13.19727415,"ECCENTRICITY":0.0001907,"INCLINATION":87.9192,"RA_OF_ASC_NODE":300.0582,"ARG_OF_PERICENTER":113.6656,"MEAN_ANOMALY":246.4677,"EPHEMERIS_TYPE":0,"NORAD_CAT_ID":54123,"ELEMENT_SET_NO":999,"REV_AT_EPOCH":18006,"BSTAR":-0.000083992631,"MEAN_MOTION_DOT":-2.1e-7,"MEAN_MOTION_DDOT":0},{"OBJECT_NAME":"ONEWEB-0506","OBJECT_ID":"2022-138M","EPOCH":"2026-07-11T19:35:12.709248","CLASSIFICATION_TYPE":"U","MEAN_MOTION":13.19725344,"ECCENTRICITY":0.00019749,"INCLINATION":87.9193,"RA_OF_ASC_NODE":300.0611,"ARG_OF_PERICENTER":109.6355,"MEAN_ANOMALY":250.4991,"EPHEMERIS_TYPE":0,"NORAD_CAT_ID":54124,"ELEMENT_SET_NO":999,"REV_AT_EPOCH":18005,"BSTAR":0.000013434622,"MEAN_MOTION_DOT":1.8e-7,"MEAN_MOTION_DDOT":0},{"OBJECT_NAME":"ONEWEB-0507","OBJECT_ID":"2022-138N","EPOCH":"2026-07-11T20:04:45.768576","CLASSIFICATION_TYPE":"U","MEAN_MOTION":13.19726391,"ECCENTRICITY":0.00020089,"INCLINATION":87.9186,"RA_OF_ASC_NODE":300.0668,"ARG_OF_PERICENTER":105.7694,"MEAN_ANOMALY":254.3661,"EPHEMERIS_TYPE":0,"NORAD_CAT_ID":54125,"ELEMENT_SET_NO":999,"REV_AT_EPOCH":18010,"BSTAR":-0.00014450712,"MEAN_MOTION_DOT":-4.5e-7,"MEAN_MOTION_DDOT":0},{"OBJECT_NAME":"ONEWEB-0508","OBJECT_ID":"2022-138P","EPOCH":"2026-07-11T20:00:13.305312","CLASSIFICATION_TYPE":"U","MEAN_MOTION":13.19725323,"ECCENTRICITY":0.00022139,"INCLINATION":87.9199,"RA_OF_ASC_NODE":300.0649,"ARG_OF_PERICENTER":106.2644,"MEAN_ANOMALY":253.8733,"EPHEMERIS_TYPE":0,"NORAD_CAT_ID":54126,"ELEMENT_SET_NO":999,"REV_AT_EPOCH":18008,"BSTAR":-0.000065570916,"MEAN_MOTION_DOT":-1.3e-7,"MEAN_MOTION_DDOT":0},{"OBJECT_NAME":"ONEWEB-0509","OBJECT_ID":"2022-138Q","EPOCH":"2026-07-11T19:23:48.682176","CLASSIFICATION_TYPE":"U","MEAN_MOTION":13.19724496,"ECCENTRICITY":0.00019974,"INCLINATION":87.9195,"RA_OF_ASC_NODE":300.0642,"ARG_OF_PERICENTER":102.3575,"MEAN_ANOMALY":257.7781,"EPHEMERIS_TYPE":0,"NORAD_CAT_ID":54127,"ELEMENT_SET_NO":999,"REV_AT_EPOCH":18005,"BSTAR":0.00011761342,"MEAN_MOTION_DOT":6e-7,"MEAN_MOTION_DDOT":0},{"OBJECT_NAME":"ONEWEB-0510","OBJECT_ID":"2022-138R","EPOCH":"2026-07-11T18:04:15.724992","CLASSIFICATION_TYPE":"U","MEAN_MOTION":13.20770293,"ECCENTRICITY":0.00020394,"INCLINATION":87.9184,"RA_OF_ASC_NODE":269.5409,"ARG_OF_PERICENTER":85.4324,"MEAN_ANOMALY":274.7042,"EPHEMERIS_TYPE":0,"NORAD_CAT_ID":54128,"ELEMENT_SET_NO":999,"REV_AT_EPOCH":18252,"BSTAR":0.000088326213,"MEAN_MOTION_DOT":4.9e-7,"MEAN_MOTION_DDOT":0},{"OBJECT_NAME":"ONEWEB-0511","OBJECT_ID":"2022-138S","EPOCH":"2026-07-11T19:19:14.925504","CLASSIFICATION_TYPE":"U","MEAN_MOTION":13.19724524,"ECCENTRICITY":0.00017382,"INCLINATION":87.9191,"RA_OF_ASC_NODE":300.0663,"ARG_OF_PERICENTER":102.2489,"MEAN_ANOMALY":257.8838,"EPHEMERIS_TYPE":0,"NORAD_CAT_ID":54129,"ELEMENT_SET_NO":999,"REV_AT_EPOCH":18008,"BSTAR":-0.00065561359,"MEAN_MOTION_DOT":-0.0000025,"MEAN_MOTION_DDOT":0},{"OBJECT_NAME":"ONEWEB-0512","OBJECT_ID":"2022-138T","EPOCH":"2026-07-11T19:07:53.358240","CLASSIFICATION_TYPE":"U","MEAN_MOTION":13.19726467,"ECCENTRICITY":0.00018538,"INCLINATION":87.9184,"RA_OF_ASC_NODE":300.0713,"ARG_OF_PERICENTER":109.4203,"MEAN_ANOMALY":250.713,"EPHEMERIS_TYPE":0,"NORAD_CAT_ID":54130,"ELEMENT_SET_NO":999,"REV_AT_EPOCH":18005,"BSTAR":0.000060931546,"MEAN_MOTION_DOT":3.7e-7,"MEAN_MOTION_DDOT":0},{"OBJECT_NAME":"ONEWEB-0513","OBJECT_ID":"2022-138U","EPOCH":"2026-07-11T19:01:24.287808","CLASSIFICATION_TYPE":"U","MEAN_MOTION":13.20269316,"ECCENTRICITY":0.00014425,"INCLINATION":87.9191,"RA_OF_ASC_NODE":300.0133,"ARG_OF_PERICENTER":124.8081,"MEAN_ANOMALY":235.3188,"EPHEMERIS_TYPE":0,"NORAD_CAT_ID":54131,"ELEMENT_SET_NO":999,"REV_AT_EPOCH":17996,"BSTAR":0.000011561525,"MEAN_MOTION_DOT":1.8e-7,"MEAN_MOTION_DDOT":0},{"OBJECT_NAME":"ONEWEB-0514","OBJECT_ID":"2022-138V","EPOCH":"2026-07-11T19:30:38.533536","CLASSIFICATION_TYPE":"U","MEAN_MOTION":13.19725884,"ECCENTRICITY":0.00019891,"INCLINATION":87.9202,"RA_OF_ASC_NODE":300.0638,"ARG_OF_PERICENTER":104.0896,"MEAN_ANOMALY":256.0458,"EPHEMERIS_TYPE":0,"NORAD_CAT_ID":54132,"ELEMENT_SET_NO":999,"REV_AT_EPOCH":18007,"BSTAR":-0.00012099394,"MEAN_MOTION_DOT":-3.5e-7,"MEAN_MOTION_DDOT":0},{"OBJECT_NAME":"ONEWEB-0515","OBJECT_ID":"2022-138W","EPOCH":"2026-07-11T17:44:54.022560","CLASSIFICATION_TYPE":"U","MEAN_MOTION":13.20771018,"ECCENTRICITY":0.00028788,"INCLINATION":87.9192,"RA_OF_ASC_NODE":269.5394,"ARG_OF_PERICENTER":89.0696,"MEAN_ANOMALY":271.0767,"EPHEMERIS_TYPE":0,"NORAD_CAT_ID":54133,"ELEMENT_SET_NO":999,"REV_AT_EPOCH":18254,"BSTAR":-0.00031199091,"MEAN_MOTION_DOT":-0.00000114,"MEAN_MOTION_DDOT":0},{"OBJECT_NAME":"ONEWEB-0516","OBJECT_ID":"2022-138X","EPOCH":"2026-07-11T20:43:24.631392","CLASSIFICATION_TYPE":"U","MEAN_MOTION":13.19725026,"ECCENTRICITY":0.00021317,"INCLINATION":87.9186,"RA_OF_ASC_NODE":300.058,"ARG_OF_PERICENTER":102.6729,"MEAN_ANOMALY":257.4642,"EPHEMERIS_TYPE":0,"NORAD_CAT_ID":54134,"ELEMENT_SET_NO":999,"REV_AT_EPOCH":18008,"BSTAR":-0.00034024478,"MEAN_MOTION_DOT":-0.00000123,"MEAN_MOTION_DDOT":0},{"OBJECT_NAME":"ONEWEB-0517","OBJECT_ID":"2022-138Y","EPOCH":"2026-07-11T20:13:51.856320","CLASSIFICATION_TYPE":"U","MEAN_MOTION":13.19726275,"ECCENTRICITY":0.00016919,"INCLINATION":87.9192,"RA_OF_ASC_NODE":300.0567,"ARG_OF_PERICENTER":93.5963,"MEAN_ANOMALY":266.5363,"EPHEMERIS_TYPE":0,"NORAD_CAT_ID":54135,"ELEMENT_SET_NO":999,"REV_AT_EPOCH":18008,"BSTAR":-0.00022006458,"MEAN_MOTION_DOT":-7.5e-7,"MEAN_MOTION_DDOT":0},{"OBJECT_NAME":"ONEWEB-0518","OBJECT_ID":"2022-138Z","EPOCH":"2026-07-11T20:41:08.719872","CLASSIFICATION_TYPE":"U","MEAN_MOTION":13.19723754,"ECCENTRICITY":0.00022115,"INCLINATION":87.9186,"RA_OF_ASC_NODE":300.0605,"ARG_OF_PERICENTER":101.4179,"MEAN_ANOMALY":258.7202,"EPHEMERIS_TYPE":0,"NORAD_CAT_ID":54136,"ELEMENT_SET_NO":999,"REV_AT_EPOCH":18008,"BSTAR":0.000036913194,"MEAN_MOTION_DOT":2.8e-7,"MEAN_MOTION_DDOT":0},{"OBJECT_NAME":"ONEWEB-0519","OBJECT_ID":"2022-138AA","EPOCH":"2026-07-11T19:28:20.691840","CLASSIFICATION_TYPE":"U","MEAN_MOTION":13.19725535,"ECCENTRICITY":0.00018352,"INCLINATION":87.9191,"RA_OF_ASC_NODE":300.0641,"ARG_OF_PERICENTER":96.4643,"MEAN_ANOMALY":263.6698,"EPHEMERIS_TYPE":0,"NORAD_CAT_ID":54137,"ELEMENT_SET_NO":999,"REV_AT_EPOCH":18008,"BSTAR":-0.00053845308,"MEAN_MOTION_DOT":-0.00000203,"MEAN_MOTION_DDOT":0}]}
